IRIDIUM 159             
1 43578U 18061K   24305.75521234  .00000175  00000+0  55553-4 0  9995
2 43578  86.3921 304.7036 0002105  89.9305 270.2132 14.34218872328328
IRIDIUM 180             
1 43922U 19002A   24305.82447311  .00001045  00000+0  36601-3 0  9994
2 43922  86.3976 241.5106 0002229  81.8089 278.3360 14.34212589303946
IRIDIUM 176             
1 43923U 19002B   24305.86889346  .00004989  00000+0  78695-3 0  9996
2 43923  86.6106 241.5023 0002177  93.9187 266.2279 14.72254387311957
IRIDIUM 168             
1 43924U 19002C   24305.81813443  .00001519  00000+0  53528-3 0  9991
2 43924  86.3978 241.5735 0002197  83.1989 276.9457 14.34220463303925
IRIDIUM 173             
1 43925U 19002D   24306.15427507  .00001454  00000+0  51192-3 0  9995
2 43925  86.3975 241.3469 0002039  82.4401 277.7026 14.34229303303968
IRIDIUM 169             
1 43926U 19002E   24305.87196649  .00001785  00000+0  57711-3 0  9994
2 43926  86.4175 273.1005 0003622 107.7345 252.4249 14.38610821304925
IRIDIUM 172             
1 43927U 19002F   24305.79910539  .00000290  00000+0  96571-4 0  9996
2 43927  86.3975 241.5010 0002250  84.2511 275.8941 14.34218832303916
IRIDIUM 175             
1 43928U 19002G   24305.79545459  .00004577  00000+0  72217-3 0  9994
2 43928  86.1564 207.0032 0003153  79.4627 280.6945 14.72214619311937
